ORBCOMM FM20            
1 25416U 98046D   25344.93349492  .00001740  00000+0  62074-3 0  9999
2 25416  44.9939  63.9903 0001683 208.3033 151.7724 14.37658268429692
ORBCOMM FM16            
1 25417U 98046E   25344.91997878  .00002272  00000+0  76691-3 0  9996
2 25417  44.9938  53.2109 0003450 139.7281 220.3824 14.39522409429714
ORBCOMM FM15            
1 25418U 98046F   25344.94078785  .00002021  00000+0  69220-3 0  9999
2 25418  44.9968  58.7964 0003331 141.8649 218.2436 14.39151578429706
ORBCOMM FM14            
1 25419U 98046G   25344.91149168  .00002126  00000+0  71979-3 0  9991
2 25419  44.9957  56.6347 0002128 153.6642 206.4315 14.39568941429671
ORBCOMM FM13            
1 25420U 98046H   25344.90745615  .00001887  00000+0  66211-3 0  9997
2 25420  44.9971  66.4205 0003599 106.0643 254.0601 14.38190342428678
ORBCOMM FM21            
1 25475U 98053A   25344.74914625  .00001469  00000+0  53009-3 0  9993
2 25475  45.0063 153.1085 0001368  65.3399 294.7592 14.37787008422651
ORBCOMM FM22            
1 25476U 98053B   25344.72102459  .00002008  00000+0  69098-3 0  9991
2 25476  45.0051 146.5957 0002715  49.0989 311.0095 14.38957178422697
ORBCOMM FM23            
1 25477U 98053C   25344.86356071  .00001489  00000+0  53420-3 0  9992
2 25477  45.0064 154.4099 0002169  47.1535 312.9495 14.38025195422820
